********  Ephemeris for PRN- 7  ********
PRN:                       7
Week:                      1982
Time of Ephemeris (s):     531000
Square Root of A(m^1/2):   5153.69609347
Eccentricity:              0.011111099331170
Mean anomaly (deg):        -60.672555346963293
Inclination (deg):         55.016873558051138
Long of asc. node (deg):   173.946783235308060
Argument of perigee (deg): -145.848258147011820
d-inclination/dt (deg/s):  -1.814100869523665e-08
d-Omega/dt (deg/s):        -4.708342116188687e-07
DeltaN (mean motion corr): 4.80948604868400e-09
Cuc:                       -5.05708158016200e-07
Cus:                       6.77630305290200e-06
Crc:                       2.48007812500000e+02
Crs:                       -8.64843750000000e+00
Cic:                       2.45869159698500e-07
Cis:                       4.65661287307700e-08
Clock ref. time (s):       531000
af0:                       2.55608523730200e-04
af1:                       -5.42854650120700e-12
af2:                       0.00000000000000e+00
Group delay (s):           -1.11758708953900e-08

********  Ephemeris for PRN- 9  ********
PRN:                       9
Week:                      1982
Time of Ephemeris (s):     531000
Square Root of A(m^1/2):   5153.69991184
Eccentricity:              0.001153893710580
Mean anomaly (deg):        118.530213679173540
Inclination (deg):         54.576350315475878
Long of asc. node (deg):   112.174635389847960
Argument of perigee (deg): 98.779043443523364
d-inclination/dt (deg/s):  2.192678039136786e-08
d-Omega/dt (deg/s):        -4.695859301406831e-07
DeltaN (mean motion corr): 4.88288196306200e-09
Cuc:                       1.72946602106100e-06
Cus:                       7.44499266147600e-06
Crc:                       2.31621093750000e+02
Crs:                       3.24023437500000e+01
Cic:                       1.58324837684600e-08
Cis:                       -1.76951289176900e-08
Clock ref. time (s):       531000
af0:                       4.90459031425400e-04
af1:                       3.52073925569100e-12
af2:                       0.00000000000000e+00
Group delay (s):           1.39698386192300e-09

********  Ephemeris for PRN-17  ********
PRN:                       17
Week:                      1982
Time of Ephemeris (s):     531000
Square Root of A(m^1/2):   5153.74056436
Eccentricity:              0.012353679514490
Mean anomaly (deg):        99.862638912137058
Inclination (deg):         56.240590433591670
Long of asc. node (deg):   -64.347085766522682
Argument of perigee (deg): -103.605990372576130
d-inclination/dt (deg/s):  1.160287865786930e-08
d-Omega/dt (deg/s):        -4.633035954881980e-07
DeltaN (mean motion corr): 4.22981904608400e-09
Cuc:                       2.22586095333100e-06
Cus:                       4.60818409919700e-06
Crc:                       3.01050781250000e+02
Crs:                       4.28945312500000e+01
Cic:                       -9.03382897377000e-08
Cis:                       -2.77534127235400e-07
Clock ref. time (s):       531000
af0:                       -1.32946181111000e-04
af1:                       2.83506551568300e-12
af2:                       0.00000000000000e+00
Group delay (s):           -1.11758708953900e-08

********  Ephemeris for PRN-15  ********
PRN:                       15
Week:                      1982
Time of Ephemeris (s):     532784
Square Root of A(m^1/2):   5153.66824532
Eccentricity:              0.010117435711440
Mean anomaly (deg):        69.457172462719868
Inclination (deg):         53.175886049866961
Long of asc. node (deg):   108.322760285813540
Argument of perigee (deg): 37.614167500289675
d-inclination/dt (deg/s):  1.434500518371610e-08
d-Omega/dt (deg/s):        -4.940534381603326e-07
DeltaN (mean motion corr): 5.49915763341700e-09
Cuc:                       2.58535146713300e-06
Cus:                       7.58096575737000e-06
Crc:                       2.17875000000000e+02
Crs:                       4.73750000000000e+01
Cic:                       -1.34110450744600e-07
Cis:                       8.75443220138500e-08
Clock ref. time (s):       532784
af0:                       -3.57391312718400e-04
af1:                       0.00000000000000e+00
af2:                       0.00000000000000e+00
Group delay (s):           -1.07102096080800e-08

********  Ephemeris for PRN-19  ********
PRN:                       19
Week:                      1982
Time of Ephemeris (s):     532784
Square Root of A(m^1/2):   5153.69474220
Eccentricity:              0.009724363568239
Mean anomaly (deg):        -73.094510743417302
Inclination (deg):         56.093461671842810
Long of asc. node (deg):   -61.635883413274456
Argument of perigee (deg): 63.574322741460875
d-inclination/dt (deg/s):  1.231910573551188e-08
d-Omega/dt (deg/s):        -4.687603905040480e-07
DeltaN (mean motion corr): 4.31267964041800e-09
Cuc:                       2.82563269138300e-06
Cus:                       3.94508242607100e-06
Crc:                       3.12468750000000e+02
Crs:                       4.96562500000000e+01
Cic:                       1.06170773506200e-07
Cis:                       1.78813934326200e-07
Clock ref. time (s):       532784
af0:                       -4.65473625809000e-04
af1:                       2.38742359215400e-12
af2:                       0.00000000000000e+00
Group delay (s):           -1.53668224811600e-08

********  Ephemeris for PRN-27  ********
PRN:                       27
Week:                      1982
Time of Ephemeris (s):     532784
Square Root of A(m^1/2):   5153.67736053
Eccentricity:              0.005263794213533
Mean anomaly (deg):        122.173850582888650
Inclination (deg):         55.941926166414369
Long of asc. node (deg):   -67.400292987000370
Argument of perigee (deg): 20.144308442252722
d-inclination/dt (deg/s):  1.759872308706357e-08
d-Omega/dt (deg/s):        -4.733237865860189e-07
DeltaN (mean motion corr): 4.46590009417500e-09
Cuc:                       3.95812094211600e-06
Cus:                       4.50760126113900e-06
Crc:                       3.00468750000000e+02
Crs:                       7.65625000000000e+01
Cic:                       -1.09896063804600e-07
Cis:                       5.21540641784700e-08
Clock ref. time (s):       532784
af0:                       3.60905658453700e-04
af1:                       2.27373675443200e-12
af2:                       0.00000000000000e+00
Group delay (s):           1.86264514923100e-09

********  Ephemeris for PRN-31  ********
PRN:                       31
Week:                      1982
Time of Ephemeris (s):     532784
Square Root of A(m^1/2):   5153.58104324
Eccentricity:              0.008826683508232
Mean anomaly (deg):        -57.642742479243608
Inclination (deg):         55.286211809142074
Long of asc. node (deg):   174.627384133644370
Argument of perigee (deg): -10.372649347407384
d-inclination/dt (deg/s):  -1.680064081333879e-08
d-Omega/dt (deg/s):        -4.691492195110819e-07
DeltaN (mean motion corr): 4.71341055075000e-09
Cuc:                       -1.04308128356900e-06
Cus:                       7.03148543834700e-06
Crc:                       2.41906250000000e+02
Crs:                       -1.52500000000000e+01
Cic:                       5.58793544769300e-09
Cis:                       -1.15483999252300e-07
Clock ref. time (s):       532784
af0:                       1.50567851960700e-04
af1:                       -2.50111042987600e-12
af2:                       0.00000000000000e+00
Group delay (s):           -1.35041773319200e-08

********  Ephemeris for PRN-32  ********
PRN:                       32
Week:                      1982
Time of Ephemeris (s):     532784
Square Root of A(m^1/2):   5153.61530113
Eccentricity:              0.001545844948850
Mean anomaly (deg):        163.548565478880420
Inclination (deg):         54.829968558626391
Long of asc. node (deg):   112.419271375758430
Argument of perigee (deg): -154.334165984559550
d-inclination/dt (deg/s):  2.701199264266566e-08
d-Omega/dt (deg/s):        -4.685762178268110e-07
DeltaN (mean motion corr): 4.80627162908000e-09
Cuc:                       2.43633985519000e-06
Cus:                       7.40401446819000e-06
Crc:                       2.33656250000000e+02
Crs:                       4.40312500000000e+01
Cic:                       2.23517417908000e-08
Cis:                       -1.86264514923000e-08
Clock ref. time (s):       532784
af0:                       -5.32324425876000e-04
af1:                       -7.95807864051000e-13
af2:                       0.00000000000000e+00
Group delay (s):           4.65661287308000e-10

********  Ephemeris for PRN- 1  ********
PRN:                       1
Week:                      1982
Time of Ephemeris (s):     532800
Square Root of A(m^1/2):   5153.67696381
Eccentricity:              0.007232635165565
Mean anomaly (deg):        -7.130007427183390
Inclination (deg):         55.581585634499618
Long of asc. node (deg):   -6.843745401127792
Argument of perigee (deg): 35.609166724607171
d-inclination/dt (deg/s):  -1.735315882121501e-08
d-Omega/dt (deg/s):        -4.832486438584255e-07
DeltaN (mean motion corr): 4.58554794136000e-09
Cuc:                       -4.59700822830200e-06
Cus:                       4.56534326076500e-06
Crc:                       2.94093750000000e+02
Crs:                       -8.74375000000000e+01
Cic:                       2.79396772384600e-08
Cis:                       1.21071934700000e-07
Clock ref. time (s):       532800
af0:                       -2.19568610191300e-05
af1:                       -2.72848410531900e-12
af2:                       0.00000000000000e+00
Group delay (s):           5.58793544769300e-09

